COSMO-SKYMED 1          
1 31598U 07023A   26194.80190568  .00001327  00000+0  11993-3 0  9995
2 31598  97.8844  26.8829 0001309 103.8934 256.2433 14.97215122 33773
COSMOS 2428             
1 31792U 07029A   26194.69214999  .00000208  00000+0  13714-3 0  9999
2 31792  70.9381 298.8270 0007203  84.1445 276.0497 14.12933515981890
SL-16 R/B               
1 31793U 07029B   26194.63082786  .00000107  00000+0  80401-4 0  9997
2 31793  70.9746 267.6415 0002011 256.2334 210.5648 14.14851164983188
KORONAS-FOTON           
1 33504U 09003A   26194.87472598  .00008185  00000+0  16498-3 0  9991
2 33504  82.4305 144.4094 0012285  66.2875 293.9661 15.46278814965223
CZ-2C R/B               
1 37731U 11030B   26194.85445747  .00000528  00000+0  72806-4 0  9993
2 37731  97.8668 149.7626 0050869 300.6468 120.5990 14.81530988808770
H-2A R/B                
1 38341U 12025E   26194.84810120  .00000561  00000+0  55695-4 0  9990
2 38341  98.4847 172.1965 0042419 259.6751  99.9685 14.95835838767074
SHIJIAN-16 (SJ-16)      
1 39358U 13057A   26194.84873253  .00000303  00000+0  32165-4 0  9992
2 39358  74.9737 306.1841 0015855 167.9682 192.1888 14.92666950690328
SL-4 R/B                
1 39679U 14021B   26193.91861972  .00007119  00000+0  14899-3 0  9997
2 39679  51.6063  84.6655 0089796 200.0922 159.6520 15.42452959675580
ALOS-2                  
1 39766U 14029A   26194.85414749  .00000855  00000+0  12134-3 0  9992
2 39766  97.9230 291.6367 0001597  91.6484 268.4911 14.79472600655525
YAOGAN-29               
1 41038U 15069A   26194.89497978 -.00000010  00000+0  54536-5 0  9999
2 41038  98.0024 223.5682 0000824  13.1391 346.9843 14.83104215574586
ASTRO-H (HITOMI)        
1 41337U 16012A   26194.46539588  .00001442  00000+0  79368-4 0  9995
2 41337  30.9985 264.4618 0009607 157.9025 202.2028 15.10628471571268
HXMT (HUIYAN)           
1 42758U 17034A   26194.83875635  .00002347  00000+0  12124-3 0  9996
2 42758  43.0153  34.6152 0032433 312.4391  47.3717 15.18681428501710
SAOCOM 1A               
1 43641U 18076A   26194.80270603  .00000116  00000+0  21153-4 0  9991
2 43641  97.8884  21.1647 0001443  85.9451 274.1927 14.82145939420047
H-2A R/B                
1 43682U 18084L   26194.67059215  .00012342  00000+0  25198-3 0  9990
2 43682  98.8538  79.3654 0020653 306.2061  53.7274 15.46162360425210
SAOCOM 1B               
1 46265U 20059A   26194.83391720  .00000366  00000+0  52487-4 0  9998
2 46265  97.8889  20.2920 0001589  81.0603 279.0789 14.82159127317430
CSS (TIANHE)            
1 48274U 21035A   26194.86888909  .00000780  00000+0  14357-4 0  9992
2 48274  41.4690 159.8761 0002698 307.1688  52.8903 15.58061298297332
COSMOS 2550             
1 48865U 21056A   26194.69426183  .00000545  00000+0  22411-4 0  9993
2 48865  67.1415  19.7235 0008386 269.4990  90.5204 15.33820895282789
CZ-2C R/B               
1 52794U 22058K   26194.71287411  .00025999  00000+0  27061-3 0  9999
2 52794  50.1856  25.2976 0030339  16.2889 343.9054 15.63776385229795
CZ-2C R/B               
1 54039U 22132E   26194.55009492  .00047308  00000+0  32043-3 0  9993
2 54039  97.2888 202.8146 0009735 350.0355  10.0715 15.74823757210098
GSLV R/B                
1 54149U 22138AN  26194.85025333  .00001282  00000+0  10724-3 0  9999
2 54149  87.3818 124.0310 0023676  56.6089 303.7404 14.97378980202808
XRISM                   
1 57800U 23137A   26194.32274361  .00002060  00000+0  10940-3 0  9990
2 57800  31.0007 190.2776 0007858 227.7814 132.2158 15.12661465156825
ACS3                    
1 59588U 24077B   26192.74048558  .00010248  00000+0  71307-2 0  9990
2 59588  97.1723 106.0854 0121011  40.7850 320.2298 13.95349463111466
SPACEMOBILE-003         
1 61045U 24163A   26193.12443383  .00000008  00000+0  15017-4 0  9996
2 61045  52.9645 194.7701 0003953 176.8899 183.2120 15.20757146101564
SPACEMOBILE-005         
1 61046U 24163B   26194.09371225  .00000320  00000+0  29081-4 0  9992
2 61046  52.9757 190.2542 0008516 188.4778 171.6074 15.20746160101707
SPACEMOBILE-001         
1 61047U 24163C   26192.44911905  .00000309  00000+0  28551-4 0  9993
2 61047  52.9736 197.5273 0007475 183.3179 176.7767 15.20792937101458
SPACEMOBILE-002         
1 61048U 24163D   26194.07601240  .00013464  00000+0  61597-3 0  9995
2 61048  52.9787 190.0866 0006379 191.8159 168.2686 15.20818302101704
SPACEMOBILE-004         
1 61049U 24163E   26193.40140888  .00012717  00000+0  58302-3 0  9998
2 61049  52.9682 192.9673 0006853 216.7757 143.2768 15.20795560101607
CZ-8A R/B               
1 66004U 25231K   26194.53449013 -.00000085  00000+0  28262-4 0  9997
2 66004  50.0044 287.2242 0116553 316.7652  42.4160 14.30161916 38717
SZ-21 MODULE            
1 66515U 25246C   26194.23468587  .00036875  00000+0  20511-3 0  9997
2 66515  41.4707 144.8204 0007887 207.7772 152.2653 15.78673057 37859
SPACEMOBILE-006         
1 67232U 25309A   26194.43397711  .00000450  00000+0  36802-4 0  9997
2 67232  52.9936 211.4033 0010307 209.4952 150.5461 15.18650721 30586
